HSU-SAT1                
1 53462U 98067UB  22313.45754018  .00076279  00000+0  94612-3 0  9990
2 53462  51.6383 334.1005 0009162  77.0205 283.1810 15.59301498 13869
FUTABA                  
1 53463U 98067UC  22313.48159665  .00097097  00000+0  11153-2 0  9990
2 53463  51.6371 333.5088 0009636  73.9355 286.2699 15.61200045 13877
TUMNANOSAT              
1 53464U 98067UD  22313.44237271  .00117103  00000+0  12441-2 0  9999
2 53464  51.6367 333.2459 0010269  71.6534 288.5576 15.63114817 13872
1998-067UE              
1 53767U 98067UE  22313.49739702  .00051651  00000+0  72033-3 0  9995
2 53767  51.6408 335.1280 0005233  88.4042 271.7549 15.56369809  9977
BEAVERCUBE              
1 53768U 98067UF  22313.43839966  .00052248  00000+0  73006-3 0  9997
2 53768  51.6397 335.4792 0004271  68.8376 291.3071 15.56317740  9974
CLICK-A                 
1 53769U 98067UG  22313.34001018  .00090919  00000+0  11579-2 0  9990
2 53769  51.6442 335.5902 0005378  71.3601 288.7975 15.58557651  9960
1998-067UH              
1 53770U 98067UH  22313.28553562  .00119101  00000+0  13471-2 0  9999
2 53770  51.6387 335.2103 0007996  67.6550 292.5291 15.61521253  9966
JAGSAT                  
1 53771U 98067UJ  22313.78316048  .00142898  00000+0  15481-2 0  9993
2 53771  51.6389 332.5312 0008425  69.6804 290.5095 15.62533559 10036
ISS DEB                 
1 53772U 98067UK  22313.09726727  .00073422  00000+0  95363-3 0  9991
2 53772  51.6387 336.9499 0008197  55.9913 304.1857 15.58106619  9915
SOYUZ-MS 22             
1 53879U 22116A   22313.59953684  .00013763  00000+0  24956-3 0  9992
2 53879  51.6444 336.2388 0006809  53.3161  93.8274 15.49887825367739
CREW DRAGON 5           
1 53963U 22124A   22313.59953684  .00013763  00000+0  24956-3 0  9995
2 53963  51.6444 336.2388 0006809  53.3161  93.8274 15.49887825367733
PROGRESS-MS 21          
1 54155U 22140A   22313.59953684  .00013763  00000+0  24956-3 0  9997
2 54155  51.6444 336.2388 0006809  53.3161  93.8274 15.49887825367737
MENGTIAN                
1 54216U 22143A   22313.64659404  .00038617  00000+0  46641-3 0  9997
2 54216  41.4771  52.7320 0009716 261.4597 199.8406 15.59928098 87514
CYGNUS NG-18            
1 54232U 22149A   22313.59953684  .00013763  00000+0  24956-3 0  9992
2 54232  51.6444 336.2388 0006809  53.3161  93.8274 15.49887825   344
ANTARES R/B             
1 54233U 22149B   22313.47326535  .15963639  12045-4  27193-3 0  9994
2 54233  51.6469 336.1455 0031177 156.8845 350.5692 16.44369277   327
